NAVSTAR 51 (USA 166)    
1 27663U 03005A   26065.41226067  .00000020  00000+0  00000+0 0  9999
2 27663  54.9069 219.0498 0148732  52.7313 318.1949  2.00566200169257
NAVSTAR 54 (USA 177)    
1 28190U 04009A   26064.93315625 -.00000023  00000+0  00000+0 0  9999
2 28190  54.9146 279.8578 0111025 169.1048  11.7386  2.00558087160879
NAVSTAR 56 (USA 180)    
1 28474U 04045A   26065.34106905 -.00000095  00000+0  00000+0 0  9998
2 28474  55.1936 329.0412 0170812 312.9072 225.9723  2.00573554156362
NAVSTAR 57 (USA 183)    
1 28874U 05038A   26065.65681979 -.00000017  00000+0  00000+0 0  9992
2 28874  54.9613 277.3140 0128744 295.3788  71.8812  2.00572910149783
METEOSAT-9 (MSG-2)      
1 28912U 05049B   26065.59066247  .00000122  00000+0  00000+0 0  9991
2 28912   9.1298  55.1603 0001599 224.1198 143.4443  1.00278557  5973
NAVSTAR 59 (USA 192)    
1 29601U 06052A   26065.20822791  .00000018  00000+0  00000+0 0  9998
2 29601  54.9564 218.0858 0087842  89.3907 271.5694  2.00551801141349
NAVSTAR 60 (USA 196)    
1 32260U 07047A   26065.01635843 -.00000015  00000+0  00000+0 0  9995
2 32260  54.0170  84.3168 0163613  85.9747 275.9459  2.00560687134746
NAVSTAR 61 (USA 199)    
1 32384U 07062A   26065.07949970 -.00000020  00000+0  00000+0 0  9990
2 32384  55.1135 278.2961 0032970 160.6738  12.9295  2.00553677133447
GOES 14                 
1 35491U 09033A   26065.76390990  .00000121  00000+0  00000+0 0  9991
2 35491   1.4253  84.3866 0001768 257.0298 298.4685  1.00100447  5564
EWS-G2 (GOES 15)        
1 36411U 10008A   26065.80811009  .00000018  00000+0  00000+0 0  9997
2 36411   1.0146  85.1017 0002095  17.7080  56.0929  1.00269857 58619
GSAT0101 (GALILEO-PFM)  
1 37846U 11060A   26053.46432651 -.00000082  00000+0  00000+0 0  9992
2 37846  57.0318 344.8758 0003975 357.0591   2.9533  1.70475478 89166
GSAT0102 (GALILEO-FM2)  
1 37847U 11060B   26060.06318653 -.00000106  00000+0  00000+0 0  9999
2 37847  57.0301 344.6971 0005422 341.2092 154.1953  1.70475778 89286
LUCH-5A                 
1 37951U 11074B   26065.82856353 -.00000049  00000+0  00000+0 0  9999
2 37951   8.4932  75.3103 0003865 248.4746 306.1672  1.00276045 52028
METEOSAT-10 (MSG-3)     
1 38552U 12035B   26065.79554338 -.00000008  00000+0  00000+0 0  9994
2 38552   4.4292  61.4529 0002490 283.3598 106.3340  1.00267966 49834
METOP-B                 
1 38771U 12049A   26065.77017151  .00000169  00000+0  97062-4 0  9993
2 38771  98.6648 119.2501 0001184 281.9884  78.1161 14.21443683698713
NAVSTAR 67 (USA 239)    
1 38833U 12053A   26065.11266852  .00000008  00000+0  00000+0 0  9992
2 38833  53.5660 147.8234 0176954  64.7855 297.0886  2.00565873 97370
GSAT0103 (GALILEO-FM3)  
1 38857U 12055A   26064.64990116  .00000009  00000+0  00000+0 0  9995
2 38857  55.7393 104.3859 0005425 285.5287  74.4915  1.70473457 83254
